{"type": "FeatureCollection", "features": [ {"type": "Feature", "properties": {"norad_id": 66819, "name": "STARLINK-35989", "group": "last-30-days", "lat": -42.971685437064856, "lon": 76.48944328560377, "alt_km": 417.4174533365658, "timestamp": "2025-12-26T19:22:37.606149+00:00", "meta": {"OBJECT_NAME": "STARLINK-35989", "OBJECT_ID": "2025-278AE", "EPOCH": "2025-12-26T14:00:04.000032", "MEAN_MOTION": 15.50593905, "ECCENTRICITY": 0.00015025, "INCLINATION": 43, "RA_OF_ASC_NODE": 169.1447, "ARG_OF_PERICENTER": 266.5556, "MEAN_ANOMALY": 190.572, "EPHEMERIS_TYPE": 0, "CLASSIFICATION_TYPE": "U", "NORAD_CAT_ID": 66819, "ELEMENT_SET_NO": 999, "REV_AT_EPOCH": 518, "BSTAR": -0.0010766413, "MEAN_MOTION_DOT": -0.0006303, "MEAN_MOTION_DDOT": 0}, "tle": {"line1": "1 66819U 25278AE  25360.58337963 -.00063030  00000+0 -10766-2 0  9999", "line2": "2 66819  43.0000 169.1447 0001502 266.5556 190.5720 15.50593905  5184"}}, "geometry": {"type": "Point", "coordinates": [76.48944328560377, -42.971685437064856]}}, {"type": "Feature", "properties": {"norad_id": 66820, "name": "KOMPSAT-7", "group": "last-30-days", "lat": -36.026824672771234, "lon": -47.96212959873408, "alt_km": 573.4005098125381, "timestamp": "2025-12-26T19:22:37.606159+00:00", "meta": {"OBJECT_NAME": "KOMPSAT-7", "OBJECT_ID": "2025-279A", "EPOCH": "2025-12-26T14:44:20.116608", "MEAN_MOTION": 15.00851437, "ECCENTRICITY": 0.00099888, "INCLINATION": 97.6455, "RA_OF_ASC_NODE": 306.2415, "ARG_OF_PERICENTER": 210.75, "MEAN_ANOMALY": 149.314, "EPHEMERIS_TYPE": 0, "CLASSIFICATION_TYPE": "U", "NORAD_CAT_ID": 66820, "ELEMENT_SET_NO": 999, "REV_AT_EPOCH": 373, "BSTAR": 0.00024502475, "MEAN_MOTION_DOT": 3.059e-05, "MEAN_MOTION_DDOT": 0}, "tle": {"line1": "1 66820U 25279A   25360.61412172  .00003059  00000+0  24502-3 0  9999", "line2": "2 66820  97.6455 306.2415 0009988 210.7500 149.3140 15.00851437  3739"}}, "geometry": {"type": "Point", "coordinates": [-47.96212959873408, -36.026824672771234]}}, {"type": "Feature", "properties": {"norad_id": 66821, "name": "STARLINK-35966", "group": "last-30-days", "lat": 46.70919498652739, "lon": -42.85968402372836, "alt_km": 406.3019295899485, "timestamp": "2025-12-26T19:22:37.606187+00:00", "meta": {"OBJECT_NAME": "STARLINK-35966", "OBJECT_ID": "2025-280A", "EPOCH": "2025-12-26T08:00:01.000224", "MEAN_MOTION": 15.52498141, "ECCENTRICITY": 0.00032095, "INCLINATION": 70.0004, "RA_OF_ASC_NODE": 161.183, "ARG_OF_PERICENTER": 267.437, "MEAN_ANOMALY": 93.1401, "EPHEMERIS_TYPE": 0, "CLASSIFICATION_TYPE": "U", "NORAD_CAT_ID": 66821, "ELEMENT_SET_NO": 999, "REV_AT_EPOCH": 508, "BSTAR": 0.00036399095, "MEAN_MOTION_DOT": 0.00022271, "MEAN_MOTION_DDOT": 0}, "tle": {"line1": "1 66821U 25280A   25360.33334491  .00022271  00000+0  36399-3 0  9992", "line2": "2 66821  70.0004 161.1830 0003209 267.4370  93.1401 15.52498141  5080"}}, "geometry": {"type": "Point", "coordinates": [-42.85968402372836, 46.70919498652739]}}, {"type": "Feature", "properties": {"norad_id": 66822, "name": "STARLINK-35958", "group": "last-30-days", "lat": 44.73202107369573, "lon": -41.26760081922317, "alt_km": 406.0984347090043, "timestamp": "2025-12-26T19:22:37.606202+00:00", "meta": {"OBJECT_NAME": "STARLINK-35958", "OBJECT_ID": "2025-280B", "EPOCH": "2025-12-25T21:09:55.876608", "MEAN_MOTION": 15.52524711, "ECCENTRICITY": 0.0003381, "INCLINATION": 70.0003, "RA_OF_ASC_NODE": 162.418, "ARG_OF_PERICENTER": 268.924, "MEAN_ANOMALY": 91.156, "EPHEMERIS_TYPE": 0, "CLASSIFICATION_TYPE": "U", "NORAD_CAT_ID": 66822, "ELEMENT_SET_NO": 999, "REV_AT_EPOCH": 497, "BSTAR": 0.0016095, "MEAN_MOTION_DOT": 0.00100126, "MEAN_MOTION_DDOT": 0}, "tle": {"line1": "1 66822U 25280B   25359.88189672  .00100126  00000+0  16095-2 0  9996", "line2": "2 66822  70.0003 162.4180 0003381 268.9240  91.1560 15.52524711  4979"}}, "geometry": {"type": "Point", "coordinates": [-41.26760081922317, 44.73202107369573]}}, {"type": "Feature", "properties": {"norad_id": 66823, "name": "STARLINK-35957", "group": "last-30-days", "lat": 43.24750622661433, "lon": -40.15505201438657, "alt_km": 406.48151575793963, "timestamp": "2025-12-26T19:22:37.606212+00:00", "meta": {"OBJECT_NAME": "STARLINK-35957", "OBJECT_ID": "2025-280C", "EPOCH": "2025-12-26T14:10:01.565760", "MEAN_MOTION": 15.52632526, "ECCENTRICITY": 0.00030942, "INCLINATION": 70.0004, "RA_OF_ASC_NODE": 160.4746, "ARG_OF_PERICENTER": 279.7471, "MEAN_ANOMALY": 80.3366, "EPHEMERIS_TYPE": 0, "CLASSIFICATION_TYPE": "U", "NORAD_CAT_ID": 66823, "ELEMENT_SET_NO": 999, "REV_AT_EPOCH": 508, "BSTAR": 0.0019580384, "MEAN_MOTION_DOT": 0.00122665, "MEAN_MOTION_DDOT": 0}, "tle": {"line1": "1 66823U 25280C   25360.59029590  .00122665  00000+0  19580-2 0  9993", "line2": "2 66823  70.0004 160.4746 0003094 279.7471  80.3366 15.52632526  5085"}}, "geometry": {"type": "Point", "coordinates": [-40.15505201438657, 43.24750622661433]}}, {"type": "Feature", "properties": {"norad_id": 66824, "name": "STARLINK-35896", "group": "last-30-days", "lat": 41.61270390385641, "lon": -38.99733915727356, "alt_km": 407.23437397219186, "timestamp": "2025-12-26T19:22:37.606223+00:00", "meta": {"OBJECT_NAME": "STARLINK-35896", "OBJECT_ID": "2025-280D", "EPOCH": "2025-12-26T14:09:31.216896", "MEAN_MOTION": 15.52506367, "ECCENTRICITY": 0.00033858, "INCLINATION": 70.0005, "RA_OF_ASC_NODE": 160.4736, "ARG_OF_PERICENTER": 276.393, "MEAN_ANOMALY": 83.6871, "EPHEMERIS_TYPE": 0, "CLASSIFICATION_TYPE": "U", "NORAD_CAT_ID": 66824, "ELEMENT_SET_NO": 999, "REV_AT_EPOCH": 508, "BSTAR": 0.00067669782, "MEAN_MOTION_DOT": 0.00041664, "MEAN_MOTION_DDOT": 0}, "tle": {"line1": "1 66824U 25280D   25360.58994464  .00041664  00000+0  67670-3 0  9997", "line2": "2 66824  70.0005 160.4736 0003385 276.3930  83.6871 15.52506367  5082"}}, "geometry": {"type": "Point", "coordinates": [-38.99733915727356, 41.61270390385641]}}, {"type": "Feature", "properties": {"norad_id": 66825, "name": "STARLINK-35476", "group": "last-30-days", "lat": 39.89881131802898, "lon": -37.85403223297916, "alt_km": 407.4093716356674, "timestamp": "2025-12-26T19:22:37.606233+00:00", "meta": {"OBJECT_NAME": "STARLINK-35476", "OBJECT_ID": "2025-280E", "EPOCH": "2025-12-26T14:09:01.477152", "MEAN_MOTION": 15.52506322, "ECCENTRICITY": 0.000348, "INCLINATION": 70.0004, "RA_OF_ASC_NODE": 160.4718, "ARG_OF_PERICENTER": 273.1136, "MEAN_ANOMALY": 86.9653, "EPHEMERIS_TYPE": 0, "CLASSIFICATION_TYPE": "U", "NORAD_CAT_ID": 66825, "ELEMENT_SET_NO": 999, "REV_AT_EPOCH": 508, "BSTAR": 0.00065432958, "MEAN_MOTION_DOT": 0.00040274, "MEAN_MOTION_DDOT": 0}, "tle": {"line1": "1 66825U 25280E   25360.58960043  .00040274  00000+0  65433-3 0  9995", "line2": "2 66825  70.0004 160.4718 0003480 273.1136  86.9653 15.52506322  5086"}}, "geometry": {"type": "Point", "coordinates": [-37.85403223297916, 39.89881131802898]}}, {"type": "Feature", "properties": {"norad_id": 66826, "name": "STARLINK-35898", "group": "last-30-days", "lat": 38.297889002684826, "lon": -36.84251340955669, "alt_km": 407.14565734728785, "timestamp": "2025-12-26T19:22:37.606243+00:00", "meta": {"OBJECT_NAME": "STARLINK-35898", "OBJECT_ID": "2025-280F", "EPOCH": "2025-12-26T14:08:34.515168", "MEAN_MOTION": 15.52530924, "ECCENTRICITY": 0.00029755, "INCLINATION": 70.0004, "RA_OF_ASC_NODE": 160.4704, "ARG_OF_PERICENTER": 270.1466, "MEAN_ANOMALY": 89.938, "EPHEMERIS_TYPE": 0, "CLASSIFICATION_TYPE": "U", "NORAD_CAT_ID": 66826, "ELEMENT_SET_NO": 999, "REV_AT_EPOCH": 508, "BSTAR": 0.001667139, "MEAN_MOTION_DOT": 0.00103786, "MEAN_MOTION_DDOT": 0}, "tle": {"line1": "1 66826U 25280F   25360.58928837  .00103786  00000+0  16671-2 0  9998", "line2": "2 66826  70.0004 160.4704 0002975 270.1466  89.9380 15.52530924  5088"}}, "geometry": {"type": "Point", "coordinates": [-36.84251340955669, 38.297889002684826]}}, {"type": "Feature", "properties": {"norad_id": 66827, "name": "STARLINK-35959", "group": "last-30-days", "lat": 36.50066968018077, "lon": -35.76456392700476, "alt_km": 407.75633221484804, "timestamp": "2025-12-26T19:22:37.606253+00:00", "meta": {"OBJECT_NAME": "STARLINK-35959", "OBJECT_ID": "2025-280G", "EPOCH": "2025-12-26T14:08:03.569280", "MEAN_MOTION": 15.52525566, "ECCENTRICITY": 0.00033638, "INCLINATION": 70.0004, "RA_OF_ASC_NODE": 160.4691, "ARG_OF_PERICENTER": 276.2436, "MEAN_ANOMALY": 83.8368, "EPHEMERIS_TYPE": 0, "CLASSIFICATION_TYPE": "U", "NORAD_CAT_ID": 66827, "ELEMENT_SET_NO": 999, "REV_AT_EPOCH": 508, "BSTAR": 0.0014157521, "MEAN_MOTION_DOT": 0.00087921, "MEAN_MOTION_DDOT": 0}, "tle": {"line1": "1 66827U 25280G   25360.58893020  .00087921  00000+0  14158-2 0  9994", "line2": "2 66827  70.0004 160.4691 0003363 276.2436  83.8368 15.52525566  5085"}}, "geometry": {"type": "Point", "coordinates": [-35.76456392700476, 36.50066968018077]}}, {"type": "Feature", "properties": {"norad_id": 66828, "name": "STARLINK-35982", "group": "last-30-days", "lat": 32.94315461859181, "lon": -33.785455698080895, "alt_km": 408.12175253845544, "timestamp": "2025-12-26T19:22:37.606263+00:00", "meta": {"OBJECT_NAME": "STARLINK-35982", "OBJECT_ID": "2025-280H", "EPOCH": "2025-12-26T14:07:03.644832", "MEAN_MOTION": 15.52565682, "ECCENTRICITY": 0.00034954, "INCLINATION": 70.0004, "RA_OF_ASC_NODE": 160.4661, "ARG_OF_PERICENTER": 276.4486, "MEAN_ANOMALY": 83.6303, "EPHEMERIS_TYPE": 0, "CLASSIFICATION_TYPE": "U", "NORAD_CAT_ID": 66828, "ELEMENT_SET_NO": 999, "REV_AT_EPOCH": 508, "BSTAR": 0.0019277159, "MEAN_MOTION_DOT": 0.00120444, "MEAN_MOTION_DDOT": 0}, "tle": {"line1": "1 66828U 25280H   25360.58823663  .00120444  00000+0  19277-2 0  9996", "line2": "2 66828  70.0004 160.4661 0003495 276.4486  83.6303 15.52565682  5086"}}, "geometry": {"type": "Point", "coordinates": [-33.785455698080895, 32.94315461859181]}}]}